EUTELSAT 8 WEST B       
1 40875U 15039B   26007.88175676 -.00000062  00000+0  00000+0 0  9992
2 40875   0.0632   4.4618 0004156 281.3773 131.0418  1.00271953 38048
EUTELSAT 9B             
1 41310U 16005A   26007.90114127  .00000066  00000+0  00000+0 0  9991
2 41310   0.0174  35.5028 0004753 244.5310 160.8502  1.00274869 36518
EUTELSAT 65 WEST A      
1 41382U 16014A   26007.87049002 -.00000273  00000+0  00000+0 0  9996
2 41382   0.0606 323.1089 0002381 326.8015  65.6941  1.00271799 35923
EUTELSAT 117 WEST B     
1 41589U 16038B   26007.64610865 -.00000009  00000+0  00000+0 0  9994
2 41589   0.0114 196.4722 0000159 190.7620 195.5693  1.00274884 35051
EUTELSAT 172B           
1 42741U 17029B   26007.84613654 -.00000003  00000+0  00000+0 0  9991
2 42741   0.0287 125.4625 0000109 167.8078 290.7225  1.00270656 32121
EUTELSAT 7C             
1 44334U 19034B   26007.52798125  .00000050  00000+0  00000+0 0  9992
2 44334   0.0760 179.2596 0003399  91.8188  33.0535  1.00271323  5228
EUTELSAT 5 WEST B       
1 44624U 19067A   26007.90669620 -.00000039  00000+0  00000+0 0  9997
2 44624   0.0677 335.8761 0003283 312.6147 140.3655  1.00271850 22838
EUTELSAT KONNECT        
1 45027U 20005B   26007.59948169  .00000052  00000+0  00000+0 0  9996
2 45027   0.0705  93.1831 0001521 187.6609  49.3081  1.00270995 22724
